{
  "links" : {
    "next" : "https://api.nasa.gov/neo/rest/v1/feed?start_date=1995-10-23&end_date=1995-10-23&detailed=true&api_key=t0TVs3DtDT2H8Oy2Zy8m2eVrNsAVKAexjcZXUckd",
    "prev" : "https://api.nasa.gov/neo/rest/v1/feed?start_date=1995-10-21&end_date=1995-10-21&detailed=true&api_key=t0TVs3DtDT2H8Oy2Zy8m2eVrNsAVKAexjcZXUckd",
    "self" : "https://api.nasa.gov/neo/rest/v1/feed?start_date=1995-10-22&end_date=1995-10-22&detailed=true&api_key=t0TVs3DtDT2H8Oy2Zy8m2eVrNsAVKAexjcZXUckd"
  },
  "element_count" : 5,
  "near_earth_objects" : {
    "1995-10-22" : [ {
      "links" : {
        "self" : "https://api.nasa.gov/neo/rest/v1/neo/3514891?api_key=t0TVs3DtDT2H8Oy2Zy8m2eVrNsAVKAexjcZXUckd"
      },
      "neo_reference_id" : "3514891",
      "name" : "(2010 GB6)",
      "nasa_jpl_url" : "http://ssd.jpl.nasa.gov/sbdb.cgi?sstr=3514891",
      "absolute_magnitude_h" : 22.1,
      "estimated_diameter" : {
        "kilometers" : {
          "estimated_diameter_min" : 0.1010543415,
          "estimated_diameter_max" : 0.2259643771
        },
        "meters" : {
          "estimated_diameter_min" : 101.054341542,
          "estimated_diameter_max" : 225.9643771094
        },
        "miles" : {
          "estimated_diameter_min" : 0.0627922373,
          "estimated_diameter_max" : 0.140407711
        },
        "feet" : {
          "estimated_diameter_min" : 331.5431259047,
          "estimated_diameter_max" : 741.3529669956
        }
      },
      "is_potentially_hazardous_asteroid" : false,
      "close_approach_data" : [ {
        "close_approach_date" : "1995-10-22",
        "epoch_date_close_approach" : 814345200000,
        "relative_velocity" : {
          "kilometers_per_second" : "23.7222056845",
          "kilometers_per_hour" : "85399.9404643321",
          "miles_per_hour" : "53064.2018957401"
        },
        "miss_distance" : {
          "astronomical" : "0.3503765468",
          "lunar" : "136.2964782715",
          "kilometers" : "52415584",
          "miles" : "32569534"
        },
        "orbiting_body" : "Earth"
      } ],
      "orbital_data" : {
        "orbit_id" : "19",
        "orbit_determination_date" : "2017-04-06 08:57:57",
        "orbit_uncertainty" : "1",
        "minimum_orbit_intersection" : ".095436",
        "jupiter_tisserand_invariant" : "6.550",
        "epoch_osculation" : "2458000.5",
        "eccentricity" : ".2448179992803084",
        "semi_major_axis" : ".8821099863815999",
        "inclination" : "35.31551686752507",
        "ascending_node_longitude" : "195.1507089091169",
        "orbital_period" : "302.6094840051001",
        "perihelion_distance" : ".6661535843704764",
        "perihelion_argument" : "187.9551444288656",
        "aphelion_distance" : "1.098066388392723",
        "perihelion_time" : "2457880.984779145922",
        "mean_anomaly" : "142.1815302614337",
        "mean_motion" : "1.18965207314498",
        "equinox" : "J2000"
      }
    }, {
      "links" : {
        "self" : "https://api.nasa.gov/neo/rest/v1/neo/3765702?api_key=t0TVs3DtDT2H8Oy2Zy8m2eVrNsAVKAexjcZXUckd"
      },
      "neo_reference_id" : "3765702",
      "name" : "(2016 XE18)",
      "nasa_jpl_url" : "http://ssd.jpl.nasa.gov/sbdb.cgi?sstr=3765702",
      "absolute_magnitude_h" : 25.3,
      "estimated_diameter" : {
        "kilometers" : {
          "estimated_diameter_min" : 0.0231502122,
          "estimated_diameter_max" : 0.0517654482
        },
        "meters" : {
          "estimated_diameter_min" : 23.150212221,
          "estimated_diameter_max" : 51.7654482198
        },
        "miles" : {
          "estimated_diameter_min" : 0.0143848705,
          "estimated_diameter_max" : 0.0321655483
        },
        "feet" : {
          "estimated_diameter_min" : 75.9521422633,
          "estimated_diameter_max" : 169.8341531374
        }
      },
      "is_potentially_hazardous_asteroid" : false,
      "close_approach_data" : [ {
        "close_approach_date" : "1995-10-22",
        "epoch_date_close_approach" : 814345200000,
        "relative_velocity" : {
          "kilometers_per_second" : "11.6461113709",
          "kilometers_per_hour" : "41926.0009352609",
          "miles_per_hour" : "26051.1865255792"
        },
        "miss_distance" : {
          "astronomical" : "0.3006845828",
          "lunar" : "116.9663009644",
          "kilometers" : "44981772",
          "miles" : "27950378"
        },
        "orbiting_body" : "Earth"
      } ],
      "orbital_data" : {
        "orbit_id" : "3",
        "orbit_determination_date" : "2017-04-06 08:21:34",
        "orbit_uncertainty" : "6",
        "minimum_orbit_intersection" : ".0618104",
        "jupiter_tisserand_invariant" : "6.504",
        "epoch_osculation" : "2458000.5",
        "eccentricity" : ".1554140405300164",
        "semi_major_axis" : ".91325910874817",
        "inclination" : "13.09120506329837",
        "ascending_node_longitude" : "252.5344599430414",
        "orbital_period" : "318.7788104118349",
        "perihelion_distance" : ".7713258206067752",
        "perihelion_argument" : "344.091615887813",
        "aphelion_distance" : "1.055192396889565",
        "perihelion_time" : "2457869.525508242763",
        "mean_anomaly" : "147.9107628630983",
        "mean_motion" : "1.129309691365342",
        "equinox" : "J2000"
      }
    } ]
  }
}